<?xml version="1.0" encoding="UTF-8"?>
<ndm xmlns:xsi="http://www.w3.org/2001/XMLSchema-instance" xsi:noNamespaceSchemaLocation="https://sanaregistry.org/r/ndmxml_unqualified/ndmxml-2.0.0-master-2.0.xsd">
<omm id="CCSDS_OMM_VERS" version="2.0">
<header><CREATION_DATE/><ORIGINATOR/></header><body><segment><metadata><OBJECT_NAME>KUIPER-00133</OBJECT_NAME><OBJECT_ID>2025-217C</OBJECT_ID><CENTER_NAME>EARTH</CENTER_NAME><REF_FRAME>TEME</REF_FRAME><TIME_SYSTEM>UTC</TIME_SYSTEM><MEAN_ELEMENT_THEORY>SGP4</MEAN_ELEMENT_THEORY></metadata><data><meanElements><EPOCH>2025-10-26T04:00:01.998720</EPOCH><MEAN_MOTION>15.29104645</MEAN_MOTION><ECCENTRICITY>.0007665</ECCENTRICITY><INCLINATION>51.8697</INCLINATION><RA_OF_ASC_NODE>295.0097</RA_OF_ASC_NODE><ARG_OF_PERICENTER>219.7267</ARG_OF_PERICENTER><MEAN_ANOMALY>331.3970</MEAN_ANOMALY></meanElements><tleParameters><EPHEMERIS_TYPE>0</EPHEMERIS_TYPE><CLASSIFICATION_TYPE>U</CLASSIFICATION_TYPE><NORAD_CAT_ID>65764</NORAD_CAT_ID><ELEMENT_SET_NO>999</ELEMENT_SET_NO><REV_AT_EPOCH>535</REV_AT_EPOCH><BSTAR>-.15352E-2</BSTAR><MEAN_MOTION_DOT>-.4414E-3</MEAN_MOTION_DOT><MEAN_MOTION_DDOT>0</MEAN_MOTION_DDOT></tleParameters></data></segment></body></omm>
<omm id="CCSDS_OMM_VERS" version="2.0">
<header><CREATION_DATE/><ORIGINATOR/></header><body><segment><metadata><OBJECT_NAME>KUIPER-00139</OBJECT_NAME><OBJECT_ID>2025-217D</OBJECT_ID><CENTER_NAME>EARTH</CENTER_NAME><REF_FRAME>TEME</REF_FRAME><TIME_SYSTEM>UTC</TIME_SYSTEM><MEAN_ELEMENT_THEORY>SGP4</MEAN_ELEMENT_THEORY></metadata><data><meanElements><EPOCH>2025-10-26T04:01:15.151008</EPOCH><MEAN_MOTION>15.35672865</MEAN_MOTION><ECCENTRICITY>.0006282</ECCENTRICITY><INCLINATION>51.8681</INCLINATION><RA_OF_ASC_NODE>294.6488</RA_OF_ASC_NODE><ARG_OF_PERICENTER>209.5551</ARG_OF_PERICENTER><MEAN_ANOMALY>150.5080</MEAN_ANOMALY></meanElements><tleParameters><EPHEMERIS_TYPE>0</EPHEMERIS_TYPE><CLASSIFICATION_TYPE>U</CLASSIFICATION_TYPE><NORAD_CAT_ID>65765</NORAD_CAT_ID><ELEMENT_SET_NO>999</ELEMENT_SET_NO><REV_AT_EPOCH>472</REV_AT_EPOCH><BSTAR>.13839E-2</BSTAR><MEAN_MOTION_DOT>.48698E-3</MEAN_MOTION_DOT><MEAN_MOTION_DDOT>0</MEAN_MOTION_DDOT></tleParameters></data></segment></body></omm>
<omm id="CCSDS_OMM_VERS" version="2.0">
<header><CREATION_DATE/><ORIGINATOR/></header><body><segment><metadata><OBJECT_NAME>KUIPER-00142</OBJECT_NAME><OBJECT_ID>2025-217E</OBJECT_ID><CENTER_NAME>EARTH</CENTER_NAME><REF_FRAME>TEME</REF_FRAME><TIME_SYSTEM>UTC</TIME_SYSTEM><MEAN_ELEMENT_THEORY>SGP4</MEAN_ELEMENT_THEORY></metadata><data><meanElements><EPOCH>2025-10-26T03:28:00.314112</EPOCH><MEAN_MOTION>15.36793839</MEAN_MOTION><ECCENTRICITY>.0003158</ECCENTRICITY><INCLINATION>51.8699</INCLINATION><RA_OF_ASC_NODE>294.5047</RA_OF_ASC_NODE><ARG_OF_PERICENTER>159.0315</ARG_OF_PERICENTER><MEAN_ANOMALY>201.0801</MEAN_ANOMALY></meanElements><tleParameters><EPHEMERIS_TYPE>0</EPHEMERIS_TYPE><CLASSIFICATION_TYPE>U</CLASSIFICATION_TYPE><NORAD_CAT_ID>65766</NORAD_CAT_ID><ELEMENT_SET_NO>999</ELEMENT_SET_NO><REV_AT_EPOCH>472</REV_AT_EPOCH><BSTAR>.10633E-2</BSTAR><MEAN_MOTION_DOT>.38641E-3</MEAN_MOTION_DOT><MEAN_MOTION_DDOT>0</MEAN_MOTION_DDOT></tleParameters></data></segment></body></omm>
<omm id="CCSDS_OMM_VERS" version="2.0">
<header><CREATION_DATE/><ORIGINATOR/></header><body><segment><metadata><OBJECT_NAME>KUIPER-00145</OBJECT_NAME><OBJECT_ID>2025-217F</OBJECT_ID><CENTER_NAME>EARTH</CENTER_NAME><REF_FRAME>TEME</REF_FRAME><TIME_SYSTEM>UTC</TIME_SYSTEM><MEAN_ELEMENT_THEORY>SGP4</MEAN_ELEMENT_THEORY></metadata><data><meanElements><EPOCH>2025-10-26T03:33:19.107648</EPOCH><MEAN_MOTION>15.36539267</MEAN_MOTION><ECCENTRICITY>.0003293</ECCENTRICITY><INCLINATION>51.8714</INCLINATION><RA_OF_ASC_NODE>294.5293</RA_OF_ASC_NODE><ARG_OF_PERICENTER>186.8278</ARG_OF_PERICENTER><MEAN_ANOMALY>173.2664</MEAN_ANOMALY></meanElements><tleParameters><EPHEMERIS_TYPE>0</EPHEMERIS_TYPE><CLASSIFICATION_TYPE>U</CLASSIFICATION_TYPE><NORAD_CAT_ID>65767</NORAD_CAT_ID><ELEMENT_SET_NO>999</ELEMENT_SET_NO><REV_AT_EPOCH>472</REV_AT_EPOCH><BSTAR>.903E-3</BSTAR><MEAN_MOTION_DOT>.3246E-3</MEAN_MOTION_DOT><MEAN_MOTION_DDOT>0</MEAN_MOTION_DDOT></tleParameters></data></segment></body></omm>
<omm id="CCSDS_OMM_VERS" version="2.0">
<header><CREATION_DATE/><ORIGINATOR/></header><body><segment><metadata><OBJECT_NAME>KUIPER-00147</OBJECT_NAME><OBJECT_ID>2025-217G</OBJECT_ID><CENTER_NAME>EARTH</CENTER_NAME><REF_FRAME>TEME</REF_FRAME><TIME_SYSTEM>UTC</TIME_SYSTEM><MEAN_ELEMENT_THEORY>SGP4</MEAN_ELEMENT_THEORY></metadata><data><meanElements><EPOCH>2025-10-26T03:58:38.988192</EPOCH><MEAN_MOTION>15.35757038</MEAN_MOTION><ECCENTRICITY>.00064</ECCENTRICITY><INCLINATION>51.8662</INCLINATION><RA_OF_ASC_NODE>294.6341</RA_OF_ASC_NODE><ARG_OF_PERICENTER>202.9737</ARG_OF_PERICENTER><MEAN_ANOMALY>157.0963</MEAN_ANOMALY></meanElements><tleParameters><EPHEMERIS_TYPE>0</EPHEMERIS_TYPE><CLASSIFICATION_TYPE>U</CLASSIFICATION_TYPE><NORAD_CAT_ID>65768</NORAD_CAT_ID><ELEMENT_SET_NO>999</ELEMENT_SET_NO><REV_AT_EPOCH>472</REV_AT_EPOCH><BSTAR>.14391E-2</BSTAR><MEAN_MOTION_DOT>.50812E-3</MEAN_MOTION_DOT><MEAN_MOTION_DDOT>0</MEAN_MOTION_DDOT></tleParameters></data></segment></body></omm>
<omm id="CCSDS_OMM_VERS" version="2.0">
<header><CREATION_DATE/><ORIGINATOR/></header><body><segment><metadata><OBJECT_NAME>KUIPER-00148</OBJECT_NAME><OBJECT_ID>2025-217H</OBJECT_ID><CENTER_NAME>EARTH</CENTER_NAME><REF_FRAME>TEME</REF_FRAME><TIME_SYSTEM>UTC</TIME_SYSTEM><MEAN_ELEMENT_THEORY>SGP4</MEAN_ELEMENT_THEORY></metadata><data><meanElements><EPOCH>2025-10-25T23:38:23.059104</EPOCH><MEAN_MOTION>15.34921964</MEAN_MOTION><ECCENTRICITY>.0009183</ECCENTRICITY><INCLINATION>51.8621</INCLINATION><RA_OF_ASC_NODE>295.6580</RA_OF_ASC_NODE><ARG_OF_PERICENTER>219.5620</ARG_OF_PERICENTER><MEAN_ANOMALY>140.4696</MEAN_ANOMALY></meanElements><tleParameters><EPHEMERIS_TYPE>0</EPHEMERIS_TYPE><CLASSIFICATION_TYPE>U</CLASSIFICATION_TYPE><NORAD_CAT_ID>65769</NORAD_CAT_ID><ELEMENT_SET_NO>999</ELEMENT_SET_NO><REV_AT_EPOCH>469</REV_AT_EPOCH><BSTAR>.10543E-2</BSTAR><MEAN_MOTION_DOT>.36088E-3</MEAN_MOTION_DOT><MEAN_MOTION_DDOT>0</MEAN_MOTION_DDOT></tleParameters></data></segment></body></omm>
<omm id="CCSDS_OMM_VERS" version="2.0">
<header><CREATION_DATE/><ORIGINATOR/></header><body><segment><metadata><OBJECT_NAME>KUIPER-00150</OBJECT_NAME><OBJECT_ID>2025-217J</OBJECT_ID><CENTER_NAME>EARTH</CENTER_NAME><REF_FRAME>TEME</REF_FRAME><TIME_SYSTEM>UTC</TIME_SYSTEM><MEAN_ELEMENT_THEORY>SGP4</MEAN_ELEMENT_THEORY></metadata><data><meanElements><EPOCH>2025-10-26T04:00:01.998720</EPOCH><MEAN_MOTION>15.32359538</MEAN_MOTION><ECCENTRICITY>.0008878</ECCENTRICITY><INCLINATION>51.8624</INCLINATION><RA_OF_ASC_NODE>294.7736</RA_OF_ASC_NODE><ARG_OF_PERICENTER>220.5725</ARG_OF_PERICENTER><MEAN_ANOMALY>64.3109</MEAN_ANOMALY></meanElements><tleParameters><EPHEMERIS_TYPE>0</EPHEMERIS_TYPE><CLASSIFICATION_TYPE>U</CLASSIFICATION_TYPE><NORAD_CAT_ID>65770</NORAD_CAT_ID><ELEMENT_SET_NO>999</ELEMENT_SET_NO><REV_AT_EPOCH>427</REV_AT_EPOCH><BSTAR>-.27088E-1</BSTAR><MEAN_MOTION_DOT>-.798231E-2</MEAN_MOTION_DOT><MEAN_MOTION_DDOT>0</MEAN_MOTION_DDOT></tleParameters></data></segment></body></omm>
<omm id="CCSDS_OMM_VERS" version="2.0">
<header><CREATION_DATE/><ORIGINATOR/></header><body><segment><metadata><OBJECT_NAME>KUIPER-00151</OBJECT_NAME><OBJECT_ID>2025-217K</OBJECT_ID><CENTER_NAME>EARTH</CENTER_NAME><REF_FRAME>TEME</REF_FRAME><TIME_SYSTEM>UTC</TIME_SYSTEM><MEAN_ELEMENT_THEORY>SGP4</MEAN_ELEMENT_THEORY></metadata><data><meanElements><EPOCH>2025-10-26T03:38:50.245152</EPOCH><MEAN_MOTION>15.36446407</MEAN_MOTION><ECCENTRICITY>.0004885</ECCENTRICITY><INCLINATION>51.8692</INCLINATION><RA_OF_ASC_NODE>294.5528</RA_OF_ASC_NODE><ARG_OF_PERICENTER>187.5035</ARG_OF_PERICENTER><MEAN_ANOMALY>172.5879</MEAN_ANOMALY></meanElements><tleParameters><EPHEMERIS_TYPE>0</EPHEMERIS_TYPE><CLASSIFICATION_TYPE>U</CLASSIFICATION_TYPE><NORAD_CAT_ID>65771</NORAD_CAT_ID><ELEMENT_SET_NO>999</ELEMENT_SET_NO><REV_AT_EPOCH>472</REV_AT_EPOCH><BSTAR>.11868E-2</BSTAR><MEAN_MOTION_DOT>.42721E-3</MEAN_MOTION_DOT><MEAN_MOTION_DDOT>0</MEAN_MOTION_DDOT></tleParameters></data></segment></body></omm>

</ndm>
