KUIPER-00133            
1 65764U 25217C   25299.16668980 -.00044140  00000+0 -15352-2 0  9998
2 65764  51.8697 295.0097 0007665 219.7267 331.3970 15.29104645  5352
KUIPER-00139            
1 65765U 25217D   25299.16753647  .00048698  00000+0  13839-2 0  9992
2 65765  51.8681 294.6488 0006282 209.5551 150.5080 15.35672865  4726
KUIPER-00142            
1 65766U 25217E   25299.14444808  .00038641  00000+0  10633-2 0  9993
2 65766  51.8699 294.5047 0003158 159.0315 201.0801 15.36793839  4721
KUIPER-00145            
1 65767U 25217F   25299.14813782  .00032460  00000+0  90300-3 0  9998
2 65767  51.8714 294.5293 0003293 186.8278 173.2664 15.36539267  4729
KUIPER-00147            
1 65768U 25217G   25299.16572903  .00050812  00000+0  14391-2 0  9994
2 65768  51.8662 294.6341 0006400 202.9737 157.0963 15.35757038  4729
KUIPER-00148            
1 65769U 25217H   25298.98498911  .00036088  00000+0  10543-2 0  9994
2 65769  51.8621 295.6580 0009183 219.5620 140.4696 15.34921964  4692
KUIPER-00150            
1 65770U 25217J   25299.16668980 -.00798231  00000+0 -27088-1 0  9990
2 65770  51.8624 294.7736 0008878 220.5725  64.3109 15.32359538  4275
KUIPER-00151            
1 65771U 25217K   25299.15197043  .00042721  00000+0  11868-2 0  9991
2 65771  51.8692 294.5528 0004885 187.5035 172.5879 15.36446407  4720
